<?xml version="1.0" encoding="UTF-8"?>
<kml xmlns="http://www.opengis.net/kml/2.2">
<Document>
  <name>TX-15 Congressional District (outline)</name>
  <description>Texas's 15th Congressional District, boundaries for the 118th-119th Congresses (2023-2027), Texas Plan C2193 (2021). Source: US Census TIGER/Line via Lewis et al., Digital Boundary Definitions of U.S. Congressional Districts (cdmaps.polisci.ucla.edu). WGS84/NAD83 lon,lat.</description>
  <Style id="tx15">
    <LineStyle><color>ff2b2bd6</color><width>3</width></LineStyle>
    <PolyStyle><color>4d2b2bd6</color><fill>0</fill><outline>1</outline></PolyStyle>
  </Style>
  <Placemark>
    <name>TX-15</name>
    <styleUrl>#tx15</styleUrl>
    <LineString>
      <tessellate>1</tessellate>
      <altitudeMode>clampToGround</altitudeMode>
      <coordinates>-98.586520,26.257518,0 -98.582917,26.256472,0 -98.580112,26.253648,0 -98.579546,26.251716,0 -98.579958,26.249430,0 -98.584674,26.245450,0 -98.585120,26.243716,0 -98.583920,26.242023,0 -98.581103,26.237881,0 -98.579966,26.234995,0 -98.578390,26.233840,0 -98.576643,26.233834,0 -98.574106,26.238585,0 -98.571006,26.240471,0 -98.567645,26.241566,0 -98.565961,26.240477,0 -98.565351,26.239316,0 -98.564985,26.238619,0 -98.564330,26.233430,0 -98.564257,26.232852,0 -98.564953,26.226912,0 -98.563414,26.225340,0 -98.561701,26.224811,0 -98.559181,26.226274,0 -98.557587,26.231042,0 -98.554080,26.232853,0 -98.551157,26.233335,0 -98.550145,26.233502,0 -98.547343,26.234647,0 -98.546005,26.236889,0 -98.546023,26.239200,0 -98.547567,26.241371,0 -98.549822,26.241161,0 -98.552335,26.241192,0 -98.558197,26.243979,0 -98.558816,26.245932,0 -98.557349,26.247482,0 -98.555409,26.247491,0 -98.552214,26.246463,0 -98.551720,26.246304,0 -98.545328,26.244536,0 -98.543549,26.242436,0 -98.540914,26.237147,0 -98.538017,26.231331,0 -98.537109,26.227721,0 -98.535578,26.226002,0 -98.534080,26.225604,0 -98.531592,26.226544,0 -98.529503,26.227727,0 -98.526904,26.232837,0 -98.524456,26.235565,0 -98.521814,26.235642,0 -98.521788,26.232530,0 -98.525956,26.228662,0 -98.526625,26.226219,0 -98.526366,26.224684,0 -98.524787,26.221878,0 -98.523414,26.220894,0 -98.521918,26.221574,0 -98.519058,26.224939,0 -98.514847,26.227218,0 -98.511623,26.226995,0 -98.508691,26.225489,0 -98.508284,26.225280,0 -98.506343,26.224135,0 -98.502908,26.223486,0 -98.501547,26.223077,0 -98.500916,26.222211,0 -98.503859,26.217451,0 -98.507105,26.211675,0 -98.507332,26.210171,0 -98.506080,26.209019,0 -98.504072,26.208798,0 -98.500333,26.209750,0 -98.495133,26.212128,0 -98.490138,26.213177,0 -98.486988,26.212923,0 -98.483750,26.211628,0 -98.482021,26.208588,0 -98.481751,26.205967,0 -98.482815,26.204035,0 -98.482740,26.201644,0 -98.480361,26.201311,0 -98.478425,26.202255,0 -98.477961,26.203647,0 -98.478161,26.206513,0 -98.479049,26.209367,0 -98.481241,26.212174,0 -98.482918,26.213867,0 -98.483269,26.216439,0 -98.481582,26.219379,0 -98.477789,26.220190,0 -98.470365,26.220702,0 -98.466167,26.223245,0 -98.462965,26.225616,0 -98.462714,26.225802,0 -98.460689,26.226064,0 -98.458402,26.225317,0 -98.456724,26.222883,0 -98.456367,26.218425,0 -98.455242,26.217683,0 -98.454342,26.217089,0 -98.453688,26.218456,0 -98.452957,26.219983,0 -98.449305,26.223307,0 -98.446658,26.224389,0 -98.443406,26.223653,0 -98.440251,26.219442,0 -98.439323,26.216051,0 -98.438822,26.214220,0 -98.439203,26.210923,0 -98.443560,26.205727,0 -98.444504,26.203743,0 -98.444376,26.201407,0 -98.442536,26.199151,0 -98.434055,26.195903,0 -98.429495,26.194095,0 -98.424279,26.190879,0 -98.418120,26.184648,0 -98.411003,26.183564,0 -98.407467,26.183404,0 -98.404433,26.182564,0 -98.402249,26.179523,0 -98.402745,26.173259,0 -98.401542,26.171648,0 -98.398646,26.170896,0 -98.394278,26.168592,0 -98.392038,26.166576,0 -98.390118,26.163264,0 -98.387206,26.158320,0 -98.386487,26.157943,0 -98.383924,26.156600,0 -98.379062,26.157056,0 -98.375726,26.157263,0 -98.372885,26.157440,0 -98.370912,26.157260,0 -98.369070,26.157093,0 -98.367237,26.157680,0 -98.365029,26.159156,0 -98.364702,26.160891,0 -98.365033,26.163318,0 -98.366077,26.165000,0 -98.367092,26.166848,0 -98.366600,26.168782,0 -98.364901,26.169888,0 -98.362159,26.172244,0 -98.359836,26.172285,0 -98.358069,26.170112,0 -98.357477,26.167648,0 -98.358453,26.161024,0 -98.356701,26.156305,0 -98.353909,26.152096,0 -98.352341,26.151120,0 -98.350437,26.151568,0 -98.349253,26.152592,0 -98.348742,26.154892,0 -98.348517,26.160848,0 -98.347258,26.164463,0 -98.345781,26.166016,0 -98.342568,26.167159,0 -98.339140,26.166724,0 -98.336837,26.166432,0 -98.334725,26.165559,0 -98.333156,26.162336,0 -98.333316,26.158800,0 -98.335170,26.156091,0 -98.337648,26.153825,0 -98.338420,26.151344,0 -98.336900,26.147505,0 -98.334763,26.145958,0 -98.332068,26.145377,0 -98.328082,26.144656,0 -98.327060,26.143809,0 -98.327412,26.142129,0 -98.334196,26.141313,0 -98.335396,26.139825,0 -98.335204,26.137617,0 -98.323828,26.121249,0 -98.320270,26.117863,0 -98.317973,26.116905,0 -98.316275,26.116197,0 -98.313171,26.115995,0 -98.311037,26.115162,0 -98.310600,26.114991,0 -98.309636,26.113373,0 -98.309011,26.111554,0 -98.306515,26.104290,0 -98.302803,26.102354,0 -98.298819,26.102594,0 -98.297859,26.103778,0 -98.298179,26.105010,0 -98.300364,26.105601,0 -98.302339,26.107682,0 -98.302801,26.109945,0 -98.302131,26.111714,0 -98.301464,26.113230,0 -98.299944,26.116687,0 -98.299549,26.117412,0 -98.299003,26.118415,0 -98.296195,26.120321,0 -98.292100,26.120646,0 -98.287779,26.119682,0 -98.279139,26.117026,0 -98.276964,26.116502,0 -98.274646,26.115944,0 -98.272319,26.116741,0 -98.270235,26.119355,0 -98.268540,26.120613,0 -98.266258,26.120722,0 -98.265373,26.118690,0 -98.266390,26.116697,0 -98.269144,26.115965,0 -98.271185,26.114206,0 -98.271292,26.113711,0 -98.271798,26.111375,0 -98.270436,26.108066,0 -98.270034,26.107090,0 -98.272605,26.106237,0 -98.275811,26.106688,0 -98.277423,26.107000,0 -98.281187,26.107730,0 -98.284771,26.107250,0 -98.286925,26.106732,0 -98.288535,26.105312,0 -98.288200,26.104820,0 -98.286476,26.102292,0 -98.284291,26.101090,0 -98.283585,26.100862,0 -98.283009,26.100675,0 -98.277218,26.098802,0 -98.271860,26.095369,0 -98.271151,26.094915,0 -98.268423,26.093167,0 -98.266082,26.089907,0 -98.265394,26.087011,0 -98.263170,26.084494,0 -98.260780,26.083360,0 -98.256413,26.081288,0 -98.251934,26.079215,0 -98.250957,26.074089,0 -98.248737,26.072042,0 -98.246305,26.072290,0 -98.243682,26.073745,0 -98.230097,26.077155,0 -98.220673,26.076467,0 -98.216832,26.074437,0 -98.215214,26.072416,0 -98.213584,26.069753,0 -98.211395,26.068513,0 -98.207366,26.067880,0 -98.205279,26.066613,0 -98.204960,26.066419,0 -98.203600,26.064063,0 -98.199446,26.056862,0 -98.196572,26.054138,0 -98.193985,26.053324,0 -98.192305,26.053453,0 -98.191547,26.054984,0 -98.190006,26.058093,0 -98.189060,26.063258,0 -98.186490,26.064294,0 -98.184322,26.063917,0 -98.182758,26.062760,0 -98.181032,26.061482,0 -98.179406,26.060010,0 -98.177875,26.060017,0 -98.176540,26.061620,0 -98.177785,26.063728,0 -98.179829,26.064961,0 -98.180059,26.068179,0 -98.180197,26.071688,0 -98.179376,26.073784,0 -98.177534,26.075023,0 -98.176296,26.075075,0 -98.173976,26.073063,0 -98.171598,26.070177,0 -98.170141,26.066393,0 -98.168829,26.062987,0 -98.166550,26.062356,0 -98.160733,26.064231,0 -98.158422,26.062700,0 -98.158334,26.060580,0 -98.162489,26.056096,0 -98.161880,26.054539,0 -98.159262,26.053743,0 -98.156682,26.054979,0 -98.155609,26.056648,0 -98.153526,26.058108,0 -98.151731,26.058187,0 -98.149463,26.055813,0 -98.149463,26.051579,0 -98.147398,26.049483,0 -98.144787,26.049607,0 -98.141122,26.054387,0 -98.136976,26.061703,0 -98.136804,26.067862,0 -98.135221,26.072148,0 -98.133485,26.073498,0 -98.131494,26.074200,0 -98.130005,26.074037,0 -98.129333,26.073963,0 -98.128367,26.072399,0 -98.128964,26.070238,0 -98.131014,26.066843,0 -98.130776,26.063689,0 -98.128331,26.061929,0 -98.123996,26.062375,0 -98.119758,26.064447,0 -98.105505,26.067537,0 -98.102203,26.065426,0 -98.097643,26.060271,0 -98.094432,26.058625,0 -98.091038,26.059169,0 -98.081884,26.063724,0 -98.081567,26.066108,0 -98.085849,26.069208,0 -98.084755,26.070808,0 -98.080495,26.070932,0 -98.076544,26.068042,0 -98.076336,26.066888,0 -98.075355,26.067935,0 -98.076912,26.069820,0 -98.073442,26.090998,0 -98.073734,26.091419,0 -98.073112,26.091566,0 -98.071963,26.098178,0 -98.071575,26.100100,0 -98.071355,26.101479,0 -98.075131,26.101993,0 -98.074288,26.107058,0 -98.065586,26.158210,0 -98.066258,26.158294,0 -98.069998,26.158819,0 -98.069976,26.158994,0 -98.073679,26.159782,0 -98.073405,26.161643,0 -98.069825,26.161152,0 -98.069079,26.164752,0 -98.072925,26.165281,0 -98.074912,26.165685,0 -98.074459,26.168394,0 -98.076282,26.168847,0 -98.075994,26.170581,0 -98.073881,26.170958,0 -98.073428,26.174384,0 -98.075418,26.174743,0 -98.083478,26.176233,0 -98.083433,26.176466,0 -98.083163,26.178107,0 -98.082800,26.180218,0 -98.082573,26.182996,0 -98.083297,26.183739,0 -98.084780,26.184117,0 -98.085977,26.184178,0 -98.086528,26.182709,0 -98.090338,26.183225,0 -98.090379,26.182997,0 -98.091275,26.177905,0 -98.092545,26.178141,0 -98.095054,26.178591,0 -98.093525,26.187223,0 -98.093197,26.189235,0 -98.093157,26.189469,0 -98.105614,26.191232,0 -98.105083,26.193833,0 -98.103157,26.193564,0 -98.103483,26.191759,0 -98.101645,26.191501,0 -98.101332,26.193311,0 -98.097398,26.192766,0 -98.096732,26.196459,0 -98.100365,26.196872,0 -98.099848,26.200432,0 -98.101970,26.200753,0 -98.107929,26.201542,0 -98.109160,26.194390,0 -98.109995,26.189449,0 -98.110821,26.184766,0 -98.111346,26.181587,0 -98.113244,26.170580,0 -98.121439,26.171719,0 -98.122002,26.168404,0 -98.122850,26.164576,0 -98.118452,26.163988,0 -98.119608,26.156759,0 -98.122241,26.157142,0 -98.121282,26.158862,0 -98.123261,26.159992,0 -98.124909,26.150162,0 -98.127020,26.137721,0 -98.127367,26.135683,0 -98.128620,26.128617,0 -98.132507,26.129159,0 -98.136495,26.129719,0 -98.134950,26.138936,0 -98.131618,26.158430,0 -98.130999,26.161831,0 -98.132949,26.162305,0 -98.132320,26.165886,0 -98.131852,26.165824,0 -98.132268,26.163020,0 -98.131326,26.162934,0 -98.130843,26.165692,0 -98.129913,26.169202,0 -98.129247,26.172785,0 -98.133153,26.173337,0 -98.137077,26.173887,0 -98.137679,26.170314,0 -98.138142,26.167621,0 -98.138215,26.167176,0 -98.138295,26.166693,0 -98.139518,26.159531,0 -98.140744,26.152453,0 -98.142573,26.141549,0 -98.146700,26.117515,0 -98.146878,26.116482,0 -98.179732,26.121015,0 -98.179497,26.122384,0 -98.178493,26.128188,0 -98.176709,26.138935,0 -98.175668,26.145022,0 -98.175629,26.145292,0 -98.174254,26.153276,0 -98.174224,26.153293,0 -98.173413,26.156875,0 -98.172866,26.161206,0 -98.172439,26.163973,0 -98.171188,26.171271,0 -98.170912,26.172934,0 -98.169965,26.178470,0 -98.179919,26.179821,0 -98.186431,26.180622,0 -98.185739,26.184760,0 -98.185210,26.187909,0 -98.184018,26.194902,0 -98.183271,26.199394,0 -98.180345,26.198989,0 -98.178960,26.198790,0 -98.177733,26.197620,0 -98.177573,26.198593,0 -98.176177,26.198407,0 -98.176297,26.197759,0 -98.172192,26.197193,0 -98.172083,26.197856,0 -98.172682,26.200249,0 -98.172191,26.203118,0 -98.170393,26.202866,0 -98.170089,26.204814,0 -98.165578,26.204142,0 -98.164697,26.209427,0 -98.163461,26.216612,0 -98.171973,26.217781,0 -98.172236,26.217817,0 -98.179754,26.218842,0 -98.179242,26.222284,0 -98.178663,26.226055,0 -98.179205,26.226130,0 -98.190662,26.227679,0 -98.199024,26.228877,0 -98.197822,26.235991,0 -98.202209,26.236602,0 -98.206752,26.237238,0 -98.205508,26.244483,0 -98.209132,26.244976,0 -98.209479,26.245023,0 -98.213062,26.245545,0 -98.213993,26.245405,0 -98.212704,26.252557,0 -98.212045,26.252694,0 -98.208183,26.252178,0 -98.207951,26.252146,0 -98.204287,26.251640,0 -98.198799,26.250871,0 -98.195405,26.250407,0 -98.179125,26.248153,0 -98.175881,26.247678,0 -98.175363,26.247625,0 -98.167093,26.246498,0 -98.163124,26.245969,0 -98.158571,26.245341,0 -98.157338,26.252501,0 -98.156118,26.259667,0 -98.154882,26.266850,0 -98.153950,26.272502,0 -98.153662,26.274038,0 -98.152682,26.279880,0 -98.152791,26.280656,0 -98.155018,26.283749,0 -98.156010,26.285638,0 -98.156623,26.289224,0 -98.155916,26.293364,0 -98.154692,26.300270,0 -98.152518,26.299966,0 -98.151429,26.299807,0 -98.147020,26.299173,0 -98.142353,26.298510,0 -98.133490,26.297272,0 -98.133460,26.297409,0 -98.130874,26.297010,0 -98.130891,26.296856,0 -98.125697,26.295235,0 -98.123027,26.294818,0 -98.116832,26.293928,0 -98.116282,26.293853,0 -98.107033,26.292555,0 -98.106458,26.292522,0 -98.100896,26.292042,0 -98.097312,26.292279,0 -98.095113,26.293267,0 -98.094043,26.294454,0 -98.091584,26.297074,0 -98.089579,26.297617,0 -98.089504,26.298125,0 -98.088156,26.297995,0 -98.086890,26.297601,0 -98.081583,26.296842,0 -98.080645,26.296698,0 -98.080327,26.296866,0 -98.078359,26.296594,0 -98.079333,26.296654,0 -98.079362,26.296502,0 -98.079296,26.296492,0 -98.051910,26.292778,0 -98.045682,26.292800,0 -98.037727,26.292849,0 -98.037785,26.296370,0 -98.013416,26.296426,0 -98.013593,26.304087,0 -98.013747,26.311264,0 -98.013804,26.314169,0 -98.013814,26.314654,0 -98.013851,26.316621,0 -98.014201,26.332595,0 -97.985074,26.328382,0 -97.977118,26.327197,0 -97.969148,26.326013,0 -97.945290,26.322532,0 -97.937367,26.321397,0 -97.937003,26.321344,0 -97.936019,26.328575,0 -97.934831,26.335721,0 -97.933948,26.342527,0 -97.933257,26.344957,0 -97.931644,26.352710,0 -97.930864,26.357324,0 -97.930676,26.358347,0 -97.923083,26.357222,0 -97.922955,26.357154,0 -97.861875,26.348156,0 -97.861875,26.371241,0 -97.861822,26.385778,0 -97.862227,26.433579,0 -97.872384,26.433535,0 -97.890307,26.433308,0 -97.908273,26.433243,0 -97.908296,26.434908,0 -97.922664,26.437047,0 -97.924445,26.437407,0 -97.925943,26.437457,0 -98.000378,26.448222,0 -98.004189,26.448784,0 -97.996514,26.491910,0 -97.992285,26.491308,0 -97.984367,26.536578,0 -97.980479,26.535990,0 -97.963912,26.533500,0 -97.968840,26.551355,0 -97.970067,26.552253,0 -97.968760,26.553980,0 -97.968244,26.560175,0 -97.968657,26.562200,0 -97.968087,26.568919,0 -97.964423,26.568751,0 -97.957405,26.611769,0 -97.985303,26.615809,0 -97.985494,26.780917,0 -97.985853,26.998813,0 -97.985733,27.000328,0 -97.985879,27.170449,0 -97.985887,27.209308,0 -97.985938,27.250321,0 -97.986076,27.260494,0 -98.000279,27.260676,0 -98.009952,27.260498,0 -98.058078,27.260981,0 -98.058423,27.327777,0 -98.058736,27.392059,0 -98.058994,27.450800,0 -98.059034,27.459198,0 -98.059088,27.469652,0 -98.059668,27.609234,0 -98.059800,27.635869,0 -98.058892,27.635796,0 -98.011908,27.635708,0 -97.942146,27.635932,0 -97.940065,27.670767,0 -97.938257,27.695801,0 -97.933653,27.776632,0 -97.933731,27.777187,0 -97.933627,27.780627,0 -97.933703,27.804073,0 -97.933949,27.859709,0 -97.933976,27.861980,0 -97.934274,27.885202,0 -97.921002,27.896088,0 -97.902465,27.911284,0 -97.897997,27.914254,0 -97.875198,27.932847,0 -97.855388,27.949066,0 -97.842148,27.959902,0 -97.798517,27.995659,0 -97.798180,27.998153,0 -97.795803,28.003131,0 -97.796369,28.004995,0 -97.796718,28.010616,0 -97.794767,28.011435,0 -97.793689,28.014307,0 -97.792146,28.014821,0 -97.791417,28.013882,0 -97.792356,28.012187,0 -97.790814,28.011271,0 -97.790603,28.012653,0 -97.789154,28.013589,0 -97.789319,28.014647,0 -97.790741,28.015748,0 -97.791279,28.017179,0 -97.790285,28.019243,0 -97.791609,28.021137,0 -97.792696,28.023754,0 -97.793733,28.024869,0 -97.795618,28.029311,0 -97.796070,28.031258,0 -97.798395,28.030742,0 -97.800016,28.032350,0 -97.798652,28.033234,0 -97.798786,28.033959,0 -97.801567,28.036074,0 -97.801388,28.038360,0 -97.804333,28.039850,0 -97.805827,28.041382,0 -97.811823,28.041551,0 -97.812827,28.039182,0 -97.815395,28.038718,0 -97.816544,28.039798,0 -97.818861,28.040774,0 -97.820241,28.040508,0 -97.819501,28.039361,0 -97.821712,28.038746,0 -97.823336,28.039426,0 -97.826086,28.037999,0 -97.825179,28.036707,0 -97.823319,28.037013,0 -97.822567,28.036440,0 -97.823525,28.035706,0 -97.826105,28.035879,0 -97.828207,28.036677,0 -97.834353,28.037172,0 -97.834346,28.036086,0 -97.838918,28.034613,0 -97.841640,28.036181,0 -97.845333,28.036785,0 -97.847337,28.036123,0 -97.848866,28.036426,0 -97.849548,28.037605,0 -97.850739,28.037583,0 -97.852496,28.036613,0 -97.853926,28.037047,0 -97.854483,28.038311,0 -97.857187,28.038023,0 -97.860558,28.038113,0 -97.863659,28.040815,0 -97.865161,28.041498,0 -97.867548,28.040986,0 -97.869590,28.043687,0 -97.870899,28.044198,0 -97.872205,28.046406,0 -97.874691,28.045197,0 -97.878101,28.046313,0 -97.877862,28.047940,0 -97.875003,28.049012,0 -97.874801,28.050039,0 -97.877398,28.052973,0 -97.879408,28.054139,0 -97.882480,28.053082,0 -97.884639,28.054904,0 -97.882937,28.056124,0 -97.883148,28.056900,0 -97.884428,28.058097,0 -97.883586,28.059123,0 -97.884037,28.060035,0 -97.888254,28.060217,0 -97.889876,28.061667,0 -97.889084,28.062871,0 -97.891100,28.063392,0 -97.893671,28.060823,0 -97.895336,28.061176,0 -97.897807,28.064482,0 -97.900027,28.065636,0 -97.901222,28.067837,0 -97.900351,28.069710,0 -97.902101,28.071930,0 -97.901174,28.074254,0 -97.901118,28.075883,0 -97.899658,28.076067,0 -97.897411,28.074517,0 -97.895441,28.075869,0 -97.897550,28.078336,0 -97.899113,28.081561,0 -97.900180,28.082597,0 -97.901666,28.082891,0 -97.903097,28.085516,0 -97.904974,28.087382,0 -97.907116,28.086436,0 -97.908191,28.087932,0 -97.908677,28.092518,0 -97.906881,28.095416,0 -97.907304,28.097586,0 -97.903424,28.099316,0 -97.898116,28.099446,0 -97.896561,28.100209,0 -97.896632,28.101832,0 -97.898783,28.102089,0 -97.899267,28.104350,0 -97.897974,28.108322,0 -97.898284,28.111855,0 -97.898032,28.113667,0 -97.900481,28.113639,0 -97.902095,28.114297,0 -97.904081,28.114228,0 -97.892900,28.122325,0 -97.873126,28.136505,0 -97.838292,28.162189,0 -97.836046,28.163538,0 -97.821443,28.174159,0 -97.820899,28.174433,0 -97.817716,28.176848,0 -97.808774,28.183415,0 -97.825376,28.211547,0 -97.845225,28.246223,0 -97.846223,28.247065,0 -97.853076,28.258682,0 -97.865587,28.280262,0 -97.900086,28.339444,0 -97.913764,28.362897,0 -97.952997,28.429959,0 -97.961692,28.445070,0 -97.984916,28.485552,0 -98.011535,28.530902,0 -98.023851,28.551674,0 -98.043885,28.585494,0 -98.063182,28.618152,0 -98.089764,28.662979,0 -98.005252,28.690239,0 -97.998850,28.692205,0 -97.925399,28.716575,0 -97.925100,28.716707,0 -97.918139,28.719156,0 -97.916972,28.718322,0 -97.915106,28.719648,0 -97.910863,28.716401,0 -97.909397,28.714508,0 -97.907107,28.713303,0 -97.904842,28.713467,0 -97.904174,28.712845,0 -97.902196,28.713010,0 -97.900317,28.711161,0 -97.898128,28.708112,0 -97.897773,28.705664,0 -97.895090,28.703984,0 -97.893043,28.704621,0 -97.891815,28.703097,0 -97.892926,28.701920,0 -97.893340,28.699968,0 -97.891930,28.699307,0 -97.889278,28.699923,0 -97.886052,28.698023,0 -97.884655,28.698529,0 -97.883677,28.695453,0 -97.881854,28.696542,0 -97.879009,28.695578,0 -97.879391,28.693718,0 -97.877401,28.693178,0 -97.875792,28.691428,0 -97.873570,28.691227,0 -97.872827,28.690275,0 -97.870674,28.689517,0 -97.867798,28.689639,0 -97.865789,28.688842,0 -97.863367,28.686774,0 -97.858368,28.684344,0 -97.856884,28.684257,0 -97.854750,28.685308,0 -97.852517,28.684979,0 -97.850869,28.683813,0 -97.846059,28.683049,0 -97.843550,28.681509,0 -97.842377,28.681631,0 -97.840824,28.680509,0 -97.839751,28.681274,0 -97.838715,28.679645,0 -97.837435,28.680577,0 -97.835415,28.680152,0 -97.835233,28.678215,0 -97.833929,28.677214,0 -97.834228,28.675773,0 -97.832831,28.675465,0 -97.831328,28.676026,0 -97.830111,28.678079,0 -97.828489,28.677226,0 -97.826243,28.674927,0 -97.825563,28.673480,0 -97.826399,28.672797,0 -97.825312,28.670341,0 -97.822964,28.670563,0 -97.795231,28.673398,0 -97.793654,28.675927,0 -97.791889,28.676950,0 -97.789899,28.675596,0 -97.788002,28.675832,0 -97.786974,28.673972,0 -97.784971,28.672811,0 -97.784679,28.671007,0 -97.783626,28.670663,0 -97.780362,28.669823,0 -97.778530,28.668027,0 -97.653782,28.756962,0 -97.606673,28.790497,0 -97.574639,28.813300,0 -97.597906,28.838538,0 -97.598366,28.838909,0 -97.612614,28.854296,0 -97.740474,28.991377,0 -97.754691,29.006789,0 -97.755110,29.007113,0 -97.751977,29.009365,0 -97.745589,29.013546,0 -97.725691,29.028271,0 -97.655712,29.079511,0 -97.630208,29.098363,0 -97.624957,29.100801,0 -97.613132,29.109765,0 -97.621438,29.117863,0 -97.625298,29.121338,0 -97.688995,29.183430,0 -97.728443,29.221748,0 -97.734087,29.227229,0 -97.757701,29.250234,0 -97.766439,29.259429,0 -97.766999,29.259899,0 -97.768831,29.261872,0 -97.771082,29.263840,0 -97.771334,29.264411,0 -97.772508,29.265641,0 -97.773308,29.266481,0 -97.787643,29.281392,0 -97.858782,29.352890,0 -97.840383,29.376791,0 -97.840125,29.377190,0 -97.825607,29.395882,0 -97.804618,29.423041,0 -97.753859,29.488582,0 -97.750277,29.494144,0 -97.746585,29.500335,0 -97.739639,29.509381,0 -97.732981,29.518496,0 -97.727647,29.525021,0 -97.722534,29.531777,0 -97.683924,29.582743,0 -97.661801,29.611909,0 -97.661368,29.612749,0 -97.659757,29.614659,0 -97.640024,29.640803,0 -97.633504,29.649432,0 -97.633176,29.649863,0 -97.631432,29.650606,0 -97.631020,29.653472,0 -97.635269,29.653717,0 -97.635627,29.655229,0 -97.637444,29.654674,0 -97.637940,29.653291,0 -97.638997,29.653265,0 -97.640492,29.651883,0 -97.641661,29.652136,0 -97.642885,29.654609,0 -97.647710,29.654188,0 -97.650350,29.655268,0 -97.651654,29.653965,0 -97.651895,29.655245,0 -97.653559,29.656183,0 -97.654344,29.658035,0 -97.653219,29.658824,0 -97.653627,29.659899,0 -97.652225,29.661820,0 -97.650141,29.661323,0 -97.649106,29.659303,0 -97.649648,29.657437,0 -97.648672,29.656964,0 -97.647921,29.658079,0 -97.647785,29.662127,0 -97.648983,29.662221,0 -97.650073,29.665021,0 -97.651902,29.666575,0 -97.652236,29.666957,0 -97.652612,29.667843,0 -97.654005,29.666991,0 -97.656849,29.664672,0 -97.656462,29.662863,0 -97.658650,29.663249,0 -97.659390,29.666539,0 -97.661045,29.668513,0 -97.663366,29.666983,0 -97.665002,29.668801,0 -97.665209,29.668043,0 -97.665910,29.666905,0 -97.669162,29.667530,0 -97.670864,29.667063,0 -97.671170,29.664116,0 -97.673466,29.663197,0 -97.675135,29.666085,0 -97.673878,29.668222,0 -97.675933,29.668134,0 -97.677592,29.668775,0 -97.676575,29.667099,0 -97.678368,29.666761,0 -97.678484,29.664469,0 -97.680498,29.663623,0 -97.683823,29.664269,0 -97.682072,29.665919,0 -97.683594,29.667170,0 -97.683864,29.666057,0 -97.685813,29.665667,0 -97.687230,29.666673,0 -97.686587,29.667295,0 -97.685326,29.666261,0 -97.685188,29.667446,0 -97.686128,29.669503,0 -97.688301,29.672589,0 -97.689791,29.671823,0 -97.691617,29.672366,0 -97.690701,29.673096,0 -97.691844,29.672866,0 -97.693831,29.672859,0 -97.698356,29.669085,0 -97.697325,29.667923,0 -97.698305,29.666708,0 -97.699477,29.667424,0 -97.700536,29.668413,0 -97.702229,29.668592,0 -97.702197,29.670099,0 -97.703421,29.670482,0 -97.703299,29.673072,0 -97.703849,29.674249,0 -97.706075,29.674550,0 -97.705317,29.675889,0 -97.705862,29.677150,0 -97.704784,29.679112,0 -97.705641,29.680218,0 -97.703855,29.681267,0 -97.704558,29.682615,0 -97.706378,29.682712,0 -97.708451,29.683733,0 -97.711705,29.681500,0 -97.715574,29.682105,0 -97.717215,29.681797,0 -97.717737,29.682614,0 -97.716759,29.683742,0 -97.717640,29.684115,0 -97.721852,29.682088,0 -97.722852,29.682557,0 -97.721450,29.684163,0 -97.722104,29.685520,0 -97.725625,29.685672,0 -97.727576,29.687892,0 -97.731985,29.690127,0 -97.733415,29.690541,0 -97.734592,29.691075,0 -97.735720,29.691198,0 -97.735409,29.693618,0 -97.737992,29.696254,0 -97.740339,29.696784,0 -97.742698,29.696670,0 -97.743629,29.697496,0 -97.743347,29.698841,0 -97.736996,29.701954,0 -97.735942,29.705629,0 -97.736770,29.711046,0 -97.738369,29.712905,0 -97.744108,29.711887,0 -97.744933,29.712690,0 -97.746091,29.711298,0 -97.749654,29.711422,0 -97.746650,29.712556,0 -97.747720,29.714398,0 -97.749984,29.714631,0 -97.751900,29.715860,0 -97.752940,29.716626,0 -97.756548,29.717825,0 -97.758627,29.715735,0 -97.763364,29.713042,0 -97.765661,29.717128,0 -97.768459,29.719103,0 -97.768333,29.720267,0 -97.766466,29.721759,0 -97.763536,29.721766,0 -97.758601,29.725047,0 -97.760808,29.725405,0 -97.760691,29.727763,0 -97.761873,29.728389,0 -97.763739,29.727899,0 -97.770960,29.732305,0 -97.770212,29.735177,0 -97.770699,29.737819,0 -97.769976,29.739508,0 -97.768234,29.741080,0 -97.768764,29.741730,0 -97.774364,29.742157,0 -97.774002,29.743938,0 -97.775123,29.744400,0 -97.777720,29.747112,0 -97.782040,29.747699,0 -97.781127,29.748619,0 -97.779464,29.748209,0 -97.781237,29.752709,0 -97.780228,29.754759,0 -97.780383,29.756795,0 -97.781724,29.757831,0 -97.780503,29.758245,0 -97.780917,29.759258,0 -97.781616,29.759719,0 -97.786380,29.760959,0 -97.790921,29.759590,0 -97.792683,29.759393,0 -97.793271,29.757861,0 -97.792916,29.754192,0 -97.793971,29.752943,0 -97.795925,29.752333,0 -97.799678,29.752301,0 -97.800848,29.752930,0 -97.801361,29.754194,0 -97.803416,29.753651,0 -97.803979,29.754914,0 -97.803020,29.756366,0 -97.803820,29.757432,0 -97.802978,29.758651,0 -97.800872,29.759167,0 -97.799745,29.763216,0 -97.800194,29.765932,0 -97.801214,29.767025,0 -97.802115,29.766584,0 -97.804898,29.767238,0 -97.807056,29.768987,0 -97.811171,29.774501,0 -97.807969,29.774642,0 -97.805892,29.773066,0 -97.805234,29.773444,0 -97.806462,29.775338,0 -97.805650,29.777058,0 -97.806253,29.777746,0 -97.808214,29.779639,0 -97.811371,29.780295,0 -97.812931,29.778319,0 -97.815102,29.780726,0 -97.811953,29.783469,0 -97.814341,29.784747,0 -97.814581,29.785131,0 -97.814724,29.785542,0 -97.814796,29.786111,0 -97.814925,29.786808,0 -97.815121,29.787499,0 -97.815393,29.788208,0 -97.817138,29.790383,0 -97.819566,29.789430,0 -97.821379,29.785672,0 -97.821837,29.782721,0 -97.823997,29.783537,0 -97.822654,29.784629,0 -97.823274,29.785492,0 -97.826233,29.784527,0 -97.826317,29.783359,0 -97.824086,29.781662,0 -97.825102,29.781007,0 -97.828535,29.781426,0 -97.828902,29.780538,0 -97.827653,29.779247,0 -97.829259,29.779597,0 -97.830146,29.780874,0 -97.830501,29.781859,0 -97.831398,29.783013,0 -97.832374,29.784496,0 -97.831349,29.787916,0 -97.830043,29.789983,0 -97.829484,29.793502,0 -97.830265,29.795533,0 -97.833524,29.795009,0 -97.834393,29.794648,0 -97.836860,29.795179,0 -97.837997,29.795960,0 -97.838504,29.797606,0 -97.839808,29.797808,0 -97.842351,29.799224,0 -97.843181,29.801216,0 -97.842254,29.802311,0 -97.842007,29.806242,0 -97.842414,29.808303,0 -97.844842,29.808455,0 -97.845413,29.807355,0 -97.846362,29.808648,0 -97.845221,29.811115,0 -97.842283,29.813160,0 -97.840750,29.815758,0 -97.839747,29.820402,0 -97.842202,29.821656,0 -97.842704,29.824015,0 -97.841549,29.824941,0 -97.838342,29.825417,0 -97.837141,29.824984,0 -97.836691,29.826910,0 -97.837614,29.828497,0 -97.839334,29.828807,0 -97.840744,29.829983,0 -97.841310,29.831920,0 -97.842349,29.832131,0 -97.843898,29.832841,0 -97.844253,29.836444,0 -97.844840,29.839111,0 -97.846104,29.839904,0 -97.846645,29.841671,0 -97.848635,29.843348,0 -97.853701,29.843119,0 -97.855533,29.843913,0 -97.856203,29.848884,0 -97.860939,29.853719,0 -97.861442,29.855003,0 -97.863718,29.856279,0 -97.867167,29.854535,0 -97.867493,29.851723,0 -97.872196,29.852519,0 -97.873044,29.855939,0 -97.875228,29.858136,0 -97.875259,29.858208,0 -97.905173,29.835664,0 -97.905297,29.835573,0 -97.919255,29.825138,0 -97.928116,29.818403,0 -97.930509,29.816604,0 -97.932916,29.814820,0 -97.943713,29.806760,0 -97.944471,29.806754,0 -97.944572,29.805869,0 -97.961814,29.789027,0 -97.999271,29.752444,0 -98.001106,29.751051,0 -98.002444,29.750223,0 -98.009171,29.745073,0 -98.011955,29.743289,0 -98.047827,29.716025,0 -98.051965,29.712840,0 -98.057342,29.708700,0 -98.058526,29.707738,0 -98.069916,29.698921,0 -98.079007,29.691929,0 -98.089941,29.683479,0 -98.090658,29.683332,0 -98.090927,29.683245,0 -98.092752,29.680135,0 -98.092171,29.676823,0 -98.093109,29.672098,0 -98.092027,29.670267,0 -98.091384,29.669422,0 -98.090520,29.668915,0 -98.090229,29.669243,0 -98.088380,29.668821,0 -98.082871,29.670784,0 -98.080677,29.670865,0 -98.079077,29.672335,0 -98.078704,29.678534,0 -98.073535,29.682248,0 -98.072075,29.682986,0 -98.070373,29.682498,0 -98.067101,29.678565,0 -98.065503,29.677677,0 -98.063938,29.676054,0 -98.062953,29.674076,0 -98.063919,29.671638,0 -98.064957,29.670997,0 -98.069294,29.670255,0 -98.070121,29.669181,0 -98.071396,29.665883,0 -98.071035,29.661842,0 -98.070064,29.658664,0 -98.067597,29.655773,0 -98.066792,29.654753,0 -98.066671,29.654509,0 -98.066356,29.654073,0 -98.065809,29.653454,0 -98.065200,29.653296,0 -98.064882,29.653308,0 -98.064211,29.653252,0 -98.062542,29.652142,0 -98.057649,29.650195,0 -98.056309,29.647455,0 -98.057490,29.641698,0 -98.056399,29.640242,0 -98.050952,29.640235,0 -98.049336,29.639149,0 -98.047937,29.640190,0 -98.044893,29.638932,0 -98.044295,29.636951,0 -98.044887,29.635423,0 -98.045973,29.629048,0 -98.046530,29.627887,0 -98.049228,29.626657,0 -98.049908,29.625371,0 -98.048885,29.622947,0 -98.049155,29.620409,0 -98.049042,29.619296,0 -98.048349,29.618443,0 -98.043994,29.618570,0 -98.039467,29.619419,0 -98.034310,29.622127,0 -98.031550,29.622928,0 -98.029261,29.622645,0 -98.027809,29.621814,0 -98.027407,29.620325,0 -98.027893,29.615128,0 -98.027304,29.608967,0 -98.027741,29.607574,0 -98.030906,29.601965,0 -98.031572,29.601430,0 -98.033757,29.600468,0 -98.037734,29.599722,0 -98.041602,29.597621,0 -98.043972,29.596077,0 -98.043272,29.595068,0 -98.038855,29.594015,0 -98.036191,29.590097,0 -98.033521,29.587384,0 -98.032677,29.585090,0 -98.032899,29.583743,0 -98.035526,29.582065,0 -98.037193,29.579713,0 -98.036980,29.576789,0 -98.036045,29.575801,0 -98.033196,29.574514,0 -98.030318,29.571802,0 -98.028734,29.569531,0 -98.024220,29.566761,0 -98.023912,29.566604,0 -98.031363,29.562086,0 -98.032484,29.561162,0 -98.036403,29.556927,0 -98.042081,29.551339,0 -98.045526,29.549387,0 -98.050025,29.547867,0 -98.056234,29.545840,0 -98.072315,29.540577,0 -98.061934,29.525109,0 -98.051494,29.503882,0 -98.051572,29.503228,0 -98.050834,29.502699,0 -98.044396,29.489697,0 -98.043002,29.486950,0 -98.045181,29.483158,0 -98.049630,29.476925,0 -98.053858,29.474333,0 -98.058469,29.470433,0 -98.062709,29.468118,0 -98.064189,29.467909,0 -98.065324,29.467212,0 -98.069909,29.466546,0 -98.073457,29.465521,0 -98.073473,29.461641,0 -98.073709,29.438652,0 -98.073620,29.437677,0 -98.080343,29.434420,0 -98.084498,29.440757,0 -98.085817,29.441119,0 -98.088044,29.439998,0 -98.089346,29.440438,0 -98.091157,29.442693,0 -98.093151,29.442831,0 -98.096375,29.447735,0 -98.098460,29.448219,0 -98.102460,29.454166,0 -98.103613,29.454090,0 -98.104160,29.453725,0 -98.105083,29.453197,0 -98.106718,29.446284,0 -98.107137,29.443006,0 -98.107792,29.442677,0 -98.122149,29.435414,0 -98.122968,29.436658,0 -98.125097,29.439919,0 -98.125129,29.439971,0 -98.124990,29.440280,0 -98.122072,29.441759,0 -98.122547,29.446028,0 -98.125194,29.446405,0 -98.128681,29.445363,0 -98.129091,29.444356,0 -98.129975,29.443711,0 -98.132668,29.442696,0 -98.134171,29.441751,0 -98.137187,29.440428,0 -98.138033,29.439391,0 -98.187687,29.379035,0 -98.188143,29.378514,0 -98.204587,29.358236,0 -98.204690,29.358113,0 -98.237988,29.317737,0 -98.249288,29.303938,0 -98.255615,29.296176,0 -98.283214,29.262330,0 -98.287020,29.257626,0 -98.290871,29.253101,0 -98.295924,29.247353,0 -98.300464,29.241910,0 -98.304559,29.237003,0 -98.327196,29.209868,0 -98.330197,29.206269,0 -98.397585,29.125244,0 -98.407336,29.114435,0 -98.403000,29.109802,0 -98.330822,29.033529,0 -98.326290,29.028623,0 -98.303278,29.004187,0 -98.276199,28.975251,0 -98.270161,28.968873,0 -98.254801,28.950346,0 -98.252387,28.947754,0 -98.247662,28.943059,0 -98.190991,28.882333,0 -98.184373,28.875259,0 -98.178533,28.870385,0 -98.176297,28.868729,0 -98.168876,28.861960,0 -98.157286,28.849051,0 -98.142451,28.832981,0 -98.125134,28.814084,0 -98.098315,28.786949,0 -98.112128,28.776879,0 -98.123754,28.767478,0 -98.125284,28.766523,0 -98.147730,28.750260,0 -98.148889,28.749648,0 -98.201842,28.710743,0 -98.259051,28.668613,0 -98.308147,28.632498,0 -98.335031,28.612658,0 -98.334324,28.448122,0 -98.334252,28.383108,0 -98.334462,28.295378,0 -98.334347,28.266147,0 -98.334315,28.161464,0 -98.334323,28.057800,0 -98.235497,28.057966,0 -98.235172,27.950518,0 -98.235217,27.949730,0 -98.235089,27.928947,0 -98.234886,27.870264,0 -98.234850,27.869628,0 -98.234486,27.778220,0 -98.234445,27.771074,0 -98.234441,27.770571,0 -98.234426,27.763000,0 -98.234360,27.755352,0 -98.234361,27.754942,0 -98.234133,27.746940,0 -98.234166,27.743745,0 -98.234133,27.711332,0 -98.233716,27.704918,0 -98.233719,27.655391,0 -98.233721,27.645077,0 -98.233235,27.500923,0 -98.233131,27.483708,0 -98.233072,27.461142,0 -98.232878,27.387099,0 -98.232723,27.336697,0 -98.232667,27.320285,0 -98.232464,27.262487,0 -98.523284,27.265150,0 -98.536646,27.265196,0 -98.534110,27.261885,0 -98.533661,27.260723,0 -98.533612,27.258071,0 -98.531796,27.255164,0 -98.530048,27.253849,0 -98.527277,27.253000,0 -98.522276,27.254089,0 -98.520916,27.253032,0 -98.519347,27.250230,0 -98.518608,27.250180,0 -98.514241,27.251505,0 -98.512437,27.251196,0 -98.510897,27.249997,0 -98.510313,27.247845,0 -98.509798,27.243750,0 -98.506168,27.238729,0 -98.504598,27.238035,0 -98.502739,27.238007,0 -98.496471,27.236913,0 -98.492943,27.235012,0 -98.492915,27.174690,0 -98.492917,27.174660,0 -98.492910,27.142062,0 -98.467284,27.142006,0 -98.466542,27.054711,0 -98.417883,27.055285,0 -98.421171,26.877031,0 -98.421416,26.874520,0 -98.422616,26.783535,0 -98.320670,26.783081,0 -98.428868,26.565239,0 -98.466270,26.494457,0 -98.478268,26.469813,0 -98.485824,26.457839,0 -98.491138,26.447234,0 -98.491943,26.445362,0 -98.493804,26.441187,0 -98.495559,26.438078,0 -98.523599,26.382338,0 -98.527111,26.375345,0 -98.527662,26.373803,0 -98.554350,26.320819,0 -98.567239,26.295501,0 -98.568256,26.293572,0 -98.574454,26.281482,0 -98.582701,26.265383,0 -98.585295,26.260270,0 -98.586339,26.258239,0 -98.586520,26.257518,0</coordinates>
    </LineString>
  </Placemark>
</Document>
</kml>
